EAGLET-I                
1 43790U 18099AJ  26068.68676861  .00006017  00000+0  35262-3 0  9994
2 43790  97.4369 120.9821 0010486 336.8524  23.2233 15.12108144397298
STARLINK-3298           
1 50165U 21125K   26068.82325164 -.00000060  00000+0  14303-4 0  9992
2 50165  53.2151 258.5234 0001341  86.7650 273.3496 15.08834528236522
